start=new Date('2021-12-28T00:00:00.000Z').valueOf();
sats=[{"FILE":"3252683","MEAN_ELEMENT_THEORY":"SGP4","DECAY_DATE":null,"REF_FRAME":"TEME","ELEMENT_SET_NO":"999","SITE":"AFETR","CLASSIFICATION_TYPE":"U","PERIOD":"95.591","TLE_LINE2":"2 45057  53.0542 329.7996 0001790  57.8940 302.2223 15.06411367105360","MEAN_MOTION_DOT":"0.00008389","LAUNCH_DATE":"2020-01-29","GP_ID":"192567992","TIME_SYSTEM":"UTC","BSTAR":"0.00058120000000","RCS_SIZE":"LARGE","ECCENTRICITY":"0.00017900","MEAN_MOTION_DDOT":"0.0000000000000","ARG_OF_PERICENTER":"57.8940","SEMIMAJOR_AXIS":"6925.314","MEAN_ANOMALY":"302.2223","NORAD_CAT_ID":"45057","OBJECT_TYPE":"PAYLOAD","PERIAPSIS":"545.939","EPOCH":"2021-12-27T09:41:42.516384","TLE_LINE1":"1 45057U 20006P   21361.40396431  .00008389  00000-0  58120-3 0  9999","RA_OF_ASC_NODE":"329.7996","REV_AT_EPOCH":"10536","APOAPSIS":"548.418","EPHEMERIS_TYPE":"0","COUNTRY_CODE":"US","CENTER_NAME":"EARTH","INCLINATION":"53.0542","OBJECT_NAME":"STARLINK-1159","MEAN_MOTION":"15.06411367","OBJECT_ID":"2020-006P"},{"OBJECT_NAME":"STARLINK-1162","OBJECT_ID":"2020-006Q","MEAN_MOTION":"15.06393638","TLE_LINE1":"1 45058U 20006Q   21361.92736614  .00000950  00000-0  82663-4 0  9994","REV_AT_EPOCH":"10544","RA_OF_ASC_NODE":"327.4671","COUNTRY_CODE":"US","CENTER_NAME":"EARTH","INCLINATION":"53.0545","APOAPSIS":"548.607","EPHEMERIS_TYPE":"0","NORAD_CAT_ID":"45058","SEMIMAJOR_AXIS":"6925.368","MEAN_ANOMALY":"298.3150","EPOCH":"2021-12-27T22:15:24.434496","OBJECT_TYPE":"PAYLOAD","PERIAPSIS":"545.859","RCS_SIZE":"LARGE","ECCENTRICITY":"0.00019840","BSTAR":"0.00008266300000","TIME_SYSTEM":"UTC","MEAN_MOTION_DDOT":"0.0000000000000","ARG_OF_PERICENTER":"61.8039","LAUNCH_DATE":"2020-01-29","GP_ID":"192602732","CLASSIFICATION_TYPE":"U","PERIOD":"95.593","ELEMENT_SET_NO":"999","SITE":"AFETR","MEAN_MOTION_DOT":"0.00000950","TLE_LINE2":"2 45058  53.0545 327.4671 0001984  61.8039 298.3150 15.06393638105441","MEAN_ELEMENT_THEORY":"SGP4","DECAY_DATE":null,"REF_FRAME":"TEME","FILE":"3253114"},{"GP_ID":"192602479","LAUNCH_DATE":"2020-01-29","MEAN_MOTION_DOT":"0.00003280","TLE_LINE2":"2 45059  53.0550 328.8498 0001827  48.1133 312.0012 15.06404214105397","CLASSIFICATION_TYPE":"U","PERIOD":"95.592","ELEMENT_SET_NO":"999","SITE":"AFETR","DECAY_DATE":null,"MEAN_ELEMENT_THEORY":"SGP4","REF_FRAME":"TEME","FILE":"3253114","MEAN_MOTION":"15.06404214","OBJECT_ID":"2020-006R","OBJECT_NAME":"STARLINK-1165","COUNTRY_CODE":"US","CENTER_NAME":"EARTH","INCLINATION":"53.0550","APOAPSIS":"548.466","EPHEMERIS_TYPE":"0","TLE_LINE1":"1 45059U 20006R   21361.61774389  .00003280  00000-0  23894-3 0  9991","REV_AT_EPOCH":"10539","RA_OF_ASC_NODE":"328.8498","EPOCH":"2021-12-27T14:49:33.072096","OBJECT_TYPE":"PAYLOAD","PERIAPSIS":"545.935","SEMIMAJOR_AXIS":"6925.336","MEAN_ANOMALY":"312.0012","NORAD_CAT_ID":"45059","ARG_OF_PERICENTER":"48.1133","MEAN_MOTION_DDOT":"0.0000000000000","RCS_SIZE":"LARGE","ECCENTRICITY":"0.00018270","BSTAR":"0.00023894000000","TIME_SYSTEM":"UTC"},{"FILE":"3253114","DECAY_DATE":null,"MEAN_ELEMENT_THEORY":"SGP4","REF_FRAME":"TEME","TLE_LINE2":"2 45060  53.0553 327.6781 0001857  52.0522 308.0634 15.06390995105433","MEAN_MOTION_DOT":"0.00001630","SITE":"AFETR","ELEMENT_SET_NO":"999","PERIOD":"95.593","CLASSIFICATION_TYPE":"U","GP_ID":"192601736","LAUNCH_DATE":"2020-01-29","MEAN_MOTION_DDOT":"0.0000000000000","ARG_OF_PERICENTER":"52.0522","TIME_SYSTEM":"UTC","BSTAR":"0.00012836000000","RCS_SIZE":"LARGE","ECCENTRICITY":"0.00018570","PERIAPSIS":"545.955","OBJECT_TYPE":"PAYLOAD","EPOCH":"2021-12-27T21:06:24.400512","MEAN_ANOMALY":"308.0634","SEMIMAJOR_AXIS":"6925.376","NORAD_CAT_ID":"45060","EPHEMERIS_TYPE":"0","APOAPSIS":"548.527","COUNTRY_CODE":"US","CENTER_NAME":"EARTH","INCLINATION":"53.0553","TLE_LINE1":"1 45060U 20006S   21361.87944908  .00001630  00000-0  12836-3 0  9998","REV_AT_EPOCH":"10543","RA_OF_ASC_NODE":"327.6781","OBJECT_ID":"2020-006S","MEAN_MOTION":"15.06390995","OBJECT_NAME":"STARLINK-1166"},{"MEAN_MOTION_DDOT":"0.0000000000000","ARG_OF_PERICENTER":"55.7355","TIME_SYSTEM":"UTC","BSTAR":"0.00019254000000","RCS_SIZE":"LARGE","ECCENTRICITY":"0.00018210","OBJECT_TYPE":"PAYLOAD","PERIAPSIS":"545.973","EPOCH":"2021-12-27T14:54:52.070400","NORAD_CAT_ID":"45061","SEMIMAJOR_AXIS":"6925.369","MEAN_ANOMALY":"304.3806","APOAPSIS":"548.496","EPHEMERIS_TYPE":"0","CENTER_NAME":"EARTH","COUNTRY_CODE":"US","INCLINATION":"53.0554","TLE_LINE1":"1 45061U 20006T   21361.62143600  .00002587  00000-0  19254-3 0  9995","REV_AT_EPOCH":"10539","RA_OF_ASC_NODE":"328.8422","MEAN_MOTION":"15.06393180","OBJECT_ID":"2020-006T","OBJECT_NAME":"STARLINK-1169","FILE":"3253114","MEAN_ELEMENT_THEORY":"SGP4","DECAY_DATE":null,"REF_FRAME":"TEME","TLE_LINE2":"2 45061  53.0554 328.8422 0001821  55.7355 304.3806 15.06393180105399","MEAN_MOTION_DOT":"0.00002587","SITE":"AFETR","ELEMENT_SET_NO":"999","CLASSIFICATION_TYPE":"U","PERIOD":"95.593","GP_ID":"192601984","LAUNCH_DATE":"2020-01-29"},{"FILE":"3253114","REF_FRAME":"TEME","DECAY_DATE":null,"MEAN_ELEMENT_THEORY":"SGP4","TLE_LINE2":"2 45062  53.0558 327.4033 0001732  51.8676 308.2469 15.06389052105448","MEAN_MOTION_DOT":"0.00002087","ELEMENT_SET_NO":"999","SITE":"AFETR","CLASSIFICATION_TYPE":"U","PERIOD":"95.593","GP_ID":"192602232","LAUNCH_DATE":"2020-01-29","ARG_OF_PERICENTER":"51.8676","MEAN_MOTION_DDOT":"0.0000000000000","BSTAR":"0.00015898000000","TIME_SYSTEM":"UTC","ECCENTRICITY":"0.00017320","RCS_SIZE":"LARGE","OBJECT_TYPE":"PAYLOAD","PERIAPSIS":"546.048","EPOCH":"2021-12-27T22:31:20.453088","MEAN_ANOMALY":"308.2469","SEMIMAJOR_AXIS":"6925.382","NORAD_CAT_ID":"45062","EPHEMERIS_TYPE":"0","APOAPSIS":"548.447","INCLINATION":"53.0558","CENTER_NAME":"EARTH","COUNTRY_CODE":"US","REV_AT_EPOCH":"10544","TLE_LINE1":"1 45062U 20006U   21361.93843117  .00002087  00000-0  15898-3 0  9995","RA_OF_ASC_NODE":"327.4033","MEAN_MOTION":"15.06389052","OBJECT_ID":"2020-006U","OBJECT_NAME":"STARLINK-1171"},{"LAUNCH_DATE":"2020-01-29","GP_ID":"192602980","CLASSIFICATION_TYPE":"U","PERIOD":"95.593","ELEMENT_SET_NO":"999","SITE":"AFETR","MEAN_MOTION_DOT":"0.00000501","TLE_LINE2":"2 45064  53.0550 307.6378 0001871  61.5122 298.6055 15.06390555105715","REF_FRAME":"TEME","MEAN_ELEMENT_THEORY":"SGP4","DECAY_DATE":null,"FILE":"3253114","OBJECT_NAME":"STARLINK-1133","MEAN_MOTION":"15.06390555","OBJECT_ID":"2020-006W","RA_OF_ASC_NODE":"307.6378","TLE_LINE1":"1 45064U 20006W   21361.88498153  .00000501  00000-0  52560-4 0  9994","REV_AT_EPOCH":"10571","INCLINATION":"53.0550","COUNTRY_CODE":"US","CENTER_NAME":"EARTH","EPHEMERIS_TYPE":"0","APOAPSIS":"548.538","NORAD_CAT_ID":"45064","SEMIMAJOR_AXIS":"6925.378","MEAN_ANOMALY":"298.6055","EPOCH":"2021-12-27T21:14:22.404192","PERIAPSIS":"545.947","OBJECT_TYPE":"PAYLOAD","ECCENTRICITY":"0.00018710","RCS_SIZE":"LARGE","TIME_SYSTEM":"UTC","BSTAR":"0.00005256000000","MEAN_MOTION_DDOT":"0.0000000000000","ARG_OF_PERICENTER":"61.5122"},{"DECAY_DATE":null,"MEAN_ELEMENT_THEORY":"SGP4","REF_FRAME":"TEME","FILE":"3253114","PERIOD":"95.593","CLASSIFICATION_TYPE":"U","ELEMENT_SET_NO":"999","SITE":"AFETR","MEAN_MOTION_DOT":"0.00001249","TLE_LINE2":"2 45065  53.0550 307.6437 0001823  56.2455 303.8707 15.06391127105718","LAUNCH_DATE":"2020-01-29","GP_ID":"192601236","RCS_SIZE":"LARGE","ECCENTRICITY":"0.00018230","TIME_SYSTEM":"UTC","BSTAR":"0.00010279000000","MEAN_MOTION_DDOT":"0.0000000000000","ARG_OF_PERICENTER":"56.2455","SEMIMAJOR_AXIS":"6925.376","MEAN_ANOMALY":"303.8707","NORAD_CAT_ID":"45065","EPOCH":"2021-12-27T21:19:40.793376","OBJECT_TYPE":"PAYLOAD","PERIAPSIS":"545.978","TLE_LINE1":"1 45065U 20006X   21361.88866659  .00001249  00000-0  10279-3 0  9995","RA_OF_ASC_NODE":"307.6437","REV_AT_EPOCH":"10571","CENTER_NAME":"EARTH","COUNTRY_CODE":"US","INCLINATION":"53.0550","APOAPSIS":"548.503","EPHEMERIS_TYPE":"0","OBJECT_NAME":"STARLINK-1139","MEAN_MOTION":"15.06391127","OBJECT_ID":"2020-006X"},{"SITE":"AFETR","ELEMENT_SET_NO":"999","CLASSIFICATION_TYPE":"U","PERIOD":"95.592","TLE_LINE2":"2 45066  53.0546 308.6500 0001904  59.6281 300.4896 15.06408715105679","MEAN_MOTION_DOT":"0.00004904","LAUNCH_DATE":"2020-01-29","GP_ID":"192601484","FILE":"3253114","REF_FRAME":"TEME","DECAY_DATE":null,"MEAN_ELEMENT_THEORY":"SGP4","TLE_LINE1":"1 45066U 20006Y   21361.66381834  .00004904  00000-0  34783-3 0  9996","RA_OF_ASC_NODE":"308.6500","REV_AT_EPOCH":"10567","EPHEMERIS_TYPE":"0","APOAPSIS":"548.505","INCLINATION":"53.0546","CENTER_NAME":"EARTH","COUNTRY_CODE":"US","OBJECT_NAME":"STARLINK-1145","OBJECT_ID":"2020-006Y","MEAN_MOTION":"15.06408715","BSTAR":"0.00034783000000","TIME_SYSTEM":"UTC","ECCENTRICITY":"0.00019040","RCS_SIZE":"LARGE","MEAN_MOTION_DDOT":"0.0000000000000","ARG_OF_PERICENTER":"59.6281","MEAN_ANOMALY":"300.4896","SEMIMAJOR_AXIS":"6925.322","NORAD_CAT_ID":"45066","PERIAPSIS":"545.868","OBJECT_TYPE":"PAYLOAD","EPOCH":"2021-12-27T15:55:53.904576"},{"OBJECT_ID":"2020-006Z","MEAN_MOTION":"15.06405909","OBJECT_NAME":"STARLINK-1150","EPHEMERIS_TYPE":"0","APOAPSIS":"548.570","INCLINATION":"53.0538","CENTER_NAME":"EARTH","COUNTRY_CODE":"US","RA_OF_ASC_NODE":"309.4605","TLE_LINE1":"1 45067U 20006Z   21361.47951550  .00007929  00000-0  55053-3 0  9997","REV_AT_EPOCH":"10565","OBJECT_TYPE":"PAYLOAD","PERIAPSIS":"545.821","EPOCH":"2021-12-27T11:30:30.139200","MEAN_ANOMALY":"302.5298","SEMIMAJOR_AXIS":"6925.330","NORAD_CAT_ID":"45067","MEAN_MOTION_DDOT":"0.0000000000000","ARG_OF_PERICENTER":"57.5883","BSTAR":"0.00055053000000","TIME_SYSTEM":"UTC","ECCENTRICITY":"0.00019850","RCS_SIZE":"LARGE","GP_ID":"192566243","LAUNCH_DATE":"2020-01-29","TLE_LINE2":"2 45067  53.0538 309.4605 0001985  57.5883 302.5298 15.06405909105659","MEAN_MOTION_DOT":"0.00007929","ELEMENT_SET_NO":"999","SITE":"AFETR","CLASSIFICATION_TYPE":"U","PERIOD":"95.592","FILE":"3252683","REF_FRAME":"TEME","DECAY_DATE":null,"MEAN_ELEMENT_THEORY":"SGP4"}];
